[
  {
    "OBJECT_NAME": "STARLINK-5669",
    "OBJECT_ID": "23015L",
    "EPOCH": "2025-11-11T04:01:23.342592",
    "MEAN_MOTION": 15.02525289,
    "ECCENTRICITY": 9.41e-05,
    "INCLINATION": 43.0036,
    "RA_OF_ASC_NODE": 250.142,
    "ARG_OF_PERICENTER": 275.7046,
    "MEAN_ANOMALY": 84.3689,
    "EPHEMERIS_TYPE": 0,
    "CLASSIFICATION_TYPE": "U",
    "NORAD_CAT_ID": 55459,
    "ELEMENT_SET_NO": 999,
    "REV_AT_EPOCH": 15292,
    "BSTAR": 0.0,
    "MEAN_MOTION_DOT": -5.04e-06,
    "MEAN_MOTION_DDOT": 0.0,
    "TLE_LINE1": "1 55459U 23015L   25315.16763128 -.00000504  00000+0 -22239-4 0  9991",
    "TLE_LINE2": "2 55459  43.0036 250.1420 0000941 275.7046  84.3689 15.02525289152921",
    "COMMENT": "Grouped by shell and plane from TLE"
  },
  {
    "OBJECT_NAME": "STARLINK-5646",
    "OBJECT_ID": "23015N",
    "EPOCH": "2025-11-11T04:06:10.379808",
    "MEAN_MOTION": 15.025366,
    "ECCENTRICITY": 0.0001306,
    "INCLINATION": 43.005,
    "RA_OF_ASC_NODE": 250.1659,
    "ARG_OF_PERICENTER": 266.5591,
    "MEAN_ANOMALY": 93.5102,
    "EPHEMERIS_TYPE": 0,
    "CLASSIFICATION_TYPE": "U",
    "NORAD_CAT_ID": 55461,
    "ELEMENT_SET_NO": 999,
    "REV_AT_EPOCH": 15292,
    "BSTAR": 3.1707000000000007e-05,
    "MEAN_MOTION_DOT": 2.25e-06,
    "MEAN_MOTION_DDOT": 0.0,
    "TLE_LINE1": "1 55461U 23015N   25315.17095347  .00000225  00000+0  31707-4 0  9994",
    "TLE_LINE2": "2 55461  43.0050 250.1659 0001306 266.5591  93.5102 15.02536600152924",
    "COMMENT": "Grouped by shell and plane from TLE"
  },
  {
    "OBJECT_NAME": "STARLINK-5677",
    "OBJECT_ID": "23015Q",
    "EPOCH": "2025-11-11T03:48:35.815968",
    "MEAN_MOTION": 15.02539164,
    "ECCENTRICITY": 0.0001146,
    "INCLINATION": 43.0063,
    "RA_OF_ASC_NODE": 250.0756,
    "ARG_OF_PERICENTER": 275.6223,
    "MEAN_ANOMALY": 84.4489,
    "EPHEMERIS_TYPE": 0,
    "CLASSIFICATION_TYPE": "U",
    "NORAD_CAT_ID": 55463,
    "ELEMENT_SET_NO": 999,
    "REV_AT_EPOCH": 15292,
    "BSTAR": 9.862e-05,
    "MEAN_MOTION_DOT": 1.129e-05,
    "MEAN_MOTION_DDOT": 0.0,
    "TLE_LINE1": "1 55463U 23015Q   25315.15874787  .00001129  00000+0  98620-4 0  9998",
    "TLE_LINE2": "2 55463  43.0063 250.0756 0001146 275.6223  84.4489 15.02539164152927",
    "COMMENT": "Grouped by shell and plane from TLE"
  },
  {
    "OBJECT_NAME": "STARLINK-5674",
    "OBJECT_ID": "23015S",
    "EPOCH": "2025-11-11T03:35:48.459552",
    "MEAN_MOTION": 15.02539316,
    "ECCENTRICITY": 0.0001269,
    "INCLINATION": 43.0039,
    "RA_OF_ASC_NODE": 250.0089,
    "ARG_OF_PERICENTER": 261.7312,
    "MEAN_ANOMALY": 98.3386,
    "EPHEMERIS_TYPE": 0,
    "CLASSIFICATION_TYPE": "U",
    "NORAD_CAT_ID": 55465,
    "ELEMENT_SET_NO": 999,
    "REV_AT_EPOCH": 15292,
    "BSTAR": 3.3429e-05,
    "MEAN_MOTION_DOT": 2.48e-06,
    "MEAN_MOTION_DDOT": 0.0,
    "TLE_LINE1": "1 55465U 23015S   25315.14986643  .00000248  00000+0  33429-4 0  9991",
    "TLE_LINE2": "2 55465  43.0039 250.0089 0001269 261.7312  98.3386 15.02539316152921",
    "COMMENT": "Grouped by shell and plane from TLE"
  },
  {
    "OBJECT_NAME": "STARLINK-5711",
    "OBJECT_ID": "23015Y",
    "EPOCH": "2025-11-10T20:55:18.624576",
    "MEAN_MOTION": 15.02537204,
    "ECCENTRICITY": 0.0001145,
    "INCLINATION": 43.0047,
    "RA_OF_ASC_NODE": 251.3567,
    "ARG_OF_PERICENTER": 259.5528,
    "MEAN_ANOMALY": 100.5186,
    "EPHEMERIS_TYPE": 0,
    "CLASSIFICATION_TYPE": "U",
    "NORAD_CAT_ID": 55471,
    "ELEMENT_SET_NO": 999,
    "REV_AT_EPOCH": 15288,
    "BSTAR": 4.8104000000000006e-05,
    "MEAN_MOTION_DOT": 4.46e-06,
    "MEAN_MOTION_DDOT": 0.0,
    "TLE_LINE1": "1 55471U 23015Y   25314.87174334  .00000446  00000+0  48104-4 0  9999",
    "TLE_LINE2": "2 55471  43.0047 251.3567 0001145 259.5528 100.5186 15.02537204152882",
    "COMMENT": "Grouped by shell and plane from TLE"
  },
  {
    "OBJECT_NAME": "STARLINK-30450",
    "OBJECT_ID": "23147A",
    "EPOCH": "2025-11-11T03:53:26.856960",
    "MEAN_MOTION": 15.0260223,
    "ECCENTRICITY": 0.0001705,
    "INCLINATION": 43.0045,
    "RA_OF_ASC_NODE": 250.5065,
    "ARG_OF_PERICENTER": 264.94,
    "MEAN_ANOMALY": 95.1248,
    "EPHEMERIS_TYPE": 0,
    "CLASSIFICATION_TYPE": "U",
    "NORAD_CAT_ID": 57913,
    "ELEMENT_SET_NO": 999,
    "REV_AT_EPOCH": 11875,
    "BSTAR": 0.0,
    "MEAN_MOTION_DOT": -0.00014023,
    "MEAN_MOTION_DDOT": 0.0,
    "TLE_LINE1": "1 57913U 23147A   25315.16211640 -.00014023  00000+0 -10232-2 0  9990",
    "TLE_LINE2": "2 57913  43.0045 250.5065 0001705 264.9400  95.1248 15.02602230118756",
    "COMMENT": "Grouped by shell and plane from TLE"
  },
  {
    "OBJECT_NAME": "STARLINK-30454",
    "OBJECT_ID": "23147C",
    "EPOCH": "2025-11-11T05:19:35.838912",
    "MEAN_MOTION": 15.02546294,
    "ECCENTRICITY": 0.0001068,
    "INCLINATION": 43.0025,
    "RA_OF_ASC_NODE": 250.0954,
    "ARG_OF_PERICENTER": 277.2849,
    "MEAN_ANOMALY": 82.7872,
    "EPHEMERIS_TYPE": 0,
    "CLASSIFICATION_TYPE": "U",
    "NORAD_CAT_ID": 57915,
    "ELEMENT_SET_NO": 999,
    "REV_AT_EPOCH": 11876,
    "BSTAR": 0.00023218,
    "MEAN_MOTION_DOT": 2.935e-05,
    "MEAN_MOTION_DDOT": 0.0,
    "TLE_LINE1": "1 57915U 23147C   25315.22194258  .00002935  00000+0  23218-3 0  9990",
    "TLE_LINE2": "2 57915  43.0025 250.0954 0001068 277.2849  82.7872 15.02546294118767",
    "COMMENT": "Grouped by shell and plane from TLE"
  },
  {
    "OBJECT_NAME": "STARLINK-30501",
    "OBJECT_ID": "23147E",
    "EPOCH": "2025-11-11T03:39:04.505472",
    "MEAN_MOTION": 15.02544676,
    "ECCENTRICITY": 0.0001158,
    "INCLINATION": 43.0041,
    "RA_OF_ASC_NODE": 250.4317,
    "ARG_OF_PERICENTER": 272.3943,
    "MEAN_ANOMALY": 87.6767,
    "EPHEMERIS_TYPE": 0,
    "CLASSIFICATION_TYPE": "U",
    "NORAD_CAT_ID": 57917,
    "ELEMENT_SET_NO": 999,
    "REV_AT_EPOCH": 11878,
    "BSTAR": 9.4318e-05,
    "MEAN_MOTION_DOT": 1.071e-05,
    "MEAN_MOTION_DDOT": 0.0,
    "TLE_LINE1": "1 57917U 23147E   25315.15213548  .00001071  00000+0  94318-4 0  9998",
    "TLE_LINE2": "2 57917  43.0041 250.4317 0001158 272.3943  87.6767 15.02544676118786",
    "COMMENT": "Grouped by shell and plane from TLE"
  },
  {
    "OBJECT_NAME": "STARLINK-30496",
    "OBJECT_ID": "23147G",
    "EPOCH": "2025-11-11T05:05:12.880896",
    "MEAN_MOTION": 15.02546866,
    "ECCENTRICITY": 9.23e-05,
    "INCLINATION": 43.003,
    "RA_OF_ASC_NODE": 250.0206,
    "ARG_OF_PERICENTER": 266.3327,
    "MEAN_ANOMALY": 93.741,
    "EPHEMERIS_TYPE": 0,
    "CLASSIFICATION_TYPE": "U",
    "NORAD_CAT_ID": 57919,
    "ELEMENT_SET_NO": 999,
    "REV_AT_EPOCH": 11879,
    "BSTAR": 9.3848e-05,
    "MEAN_MOTION_DOT": 1.065e-05,
    "MEAN_MOTION_DDOT": 0.0,
    "TLE_LINE1": "1 57919U 23147G   25315.21195464  .00001065  00000+0  93848-4 0  9993",
    "TLE_LINE2": "2 57919  43.0030 250.0206 0000923 266.3327  93.7410 15.02546866118794",
    "COMMENT": "Grouped by shell and plane from TLE"
  },
  {
    "OBJECT_NAME": "STARLINK-30492",
    "OBJECT_ID": "23147J",
    "EPOCH": "2025-11-10T20:57:00.588672",
    "MEAN_MOTION": 15.02525223,
    "ECCENTRICITY": 0.0001579,
    "INCLINATION": 43.0028,
    "RA_OF_ASC_NODE": 251.773,
    "ARG_OF_PERICENTER": 287.2114,
    "MEAN_ANOMALY": 72.8555,
    "EPHEMERIS_TYPE": 0,
    "CLASSIFICATION_TYPE": "U",
    "NORAD_CAT_ID": 57921,
    "ELEMENT_SET_NO": 999,
    "REV_AT_EPOCH": 11871,
    "BSTAR": 0.0,
    "MEAN_MOTION_DOT": -2.537e-05,
    "MEAN_MOTION_DDOT": 0.0,
    "TLE_LINE1": "1 57921U 23147J   25314.87292348 -.00002537  00000+0 -17286-3 0  9994",
    "TLE_LINE2": "2 57921  43.0028 251.7730 0001579 287.2114  72.8555 15.02525223118712",
    "COMMENT": "Grouped by shell and plane from TLE"
  },
  {
    "OBJECT_NAME": "STARLINK-34497",
    "OBJECT_ID": "25142A",
    "EPOCH": "2025-11-11T06:28:17.353056",
    "MEAN_MOTION": 14.98350871,
    "ECCENTRICITY": 0.0002608,
    "INCLINATION": 70.0021,
    "RA_OF_ASC_NODE": 252.9905,
    "ARG_OF_PERICENTER": 274.6806,
    "MEAN_ANOMALY": 85.4056,
    "EPHEMERIS_TYPE": 0,
    "CLASSIFICATION_TYPE": "U",
    "NORAD_CAT_ID": 64696,
    "ELEMENT_SET_NO": 999,
    "REV_AT_EPOCH": 2190,
    "BSTAR": 0.0011156,
    "MEAN_MOTION_DOT": 0.00013251,
    "MEAN_MOTION_DDOT": 0.0,
    "TLE_LINE1": "1 64696U 25142A   25315.26964529  .00013251  00000+0  11156-2 0  9991",
    "TLE_LINE2": "2 64696  70.0021 252.9905 0002608 274.6806  85.4056 14.98350871 21900",
    "COMMENT": "Grouped by shell and plane from TLE"
  },
  {
    "OBJECT_NAME": "STARLINK-34584",
    "OBJECT_ID": "25142B",
    "EPOCH": "2025-11-11T06:04:02.476416",
    "MEAN_MOTION": 14.98317643,
    "ECCENTRICITY": 0.0002891,
    "INCLINATION": 70.0018,
    "RA_OF_ASC_NODE": 252.9278,
    "ARG_OF_PERICENTER": 269.7606,
    "MEAN_ANOMALY": 90.3222,
    "EPHEMERIS_TYPE": 0,
    "CLASSIFICATION_TYPE": "U",
    "NORAD_CAT_ID": 64697,
    "ELEMENT_SET_NO": 999,
    "REV_AT_EPOCH": 2174,
    "BSTAR": 0.0006298,
    "MEAN_MOTION_DOT": 7.427e-05,
    "MEAN_MOTION_DDOT": 0.0,
    "TLE_LINE1": "1 64697U 25142B   25315.25280644  .00007427  00000+0  62980-3 0  9990",
    "TLE_LINE2": "2 64697  70.0018 252.9278 0002891 269.7606  90.3222 14.98317643 21749",
    "COMMENT": "Grouped by shell and plane from TLE"
  },
  {
    "OBJECT_NAME": "STARLINK-34535",
    "OBJECT_ID": "25142C",
    "EPOCH": "2025-11-11T06:12:32.334912",
    "MEAN_MOTION": 14.95927103,
    "ECCENTRICITY": 0.0002868,
    "INCLINATION": 70.0021,
    "RA_OF_ASC_NODE": 252.5365,
    "ARG_OF_PERICENTER": 272.0646,
    "MEAN_ANOMALY": 88.0183,
    "EPHEMERIS_TYPE": 0,
    "CLASSIFICATION_TYPE": "U",
    "NORAD_CAT_ID": 64698,
    "ELEMENT_SET_NO": 999,
    "REV_AT_EPOCH": 2174,
    "BSTAR": 0.0005708299999999999,
    "MEAN_MOTION_DOT": 6.318e-05,
    "MEAN_MOTION_DDOT": 0.0,
    "TLE_LINE1": "1 64698U 25142C   25315.25870758  .00006318  00000+0  57083-3 0  9998",
    "TLE_LINE2": "2 64698  70.0021 252.5365 0002868 272.0646  88.0183 14.95927103 21747",
    "COMMENT": "Grouped by shell and plane from TLE"
  }
]